NORAD_CAT_ID,OBJECT_NAME,OBJECT_TYPE,EPOCH,MEAN_MOTION,ECCENTRICITY,INCLINATION,RA_OF_ASC_NODE,ARG_OF_PERICENTER,MEAN_ANOMALY,BSTAR,MEAN_MOTION_DOT,MEAN_MOTION_DDOT,TLE_LINE0,TLE_LINE1,TLE_LINE2,SEMIMAJOR_AXIS,PERIOD,APOGEE,PERIGEE,DECAYED
51738.0,STARLINK-3515,PAYLOAD,2022-12-11 20:39:56,15.08838112,0.0003392,53.2154,233.5454,31.2349,328.8844,-8.3546e-07,-3.02e-06,0.0,0 STARLINK-3515,1 51738U 22016AA  22345.86107496 -.00000302  00000-0 -83546-6 0  9991,2 51738  53.2154 233.5454 0003392  31.2349 328.8844 15.08838112 45958,6917.886,95.438,542.0980000000002,537.405,0.0
51738.0,STARLINK-3515,PAYLOAD,2022-12-12 03:01:29,15.08844102,0.000347,53.2153,232.3558,30.8313,329.2882,0.00013477,1.857e-05,0.0,0 STARLINK-3515,1 51738U 22016AA  22346.12603299  .00001857  00000-0  13477-3 0  9990,2 51738  53.2153 232.3558 0003470  30.8313 329.2882 15.08844102 45999,6917.868,95.437,542.133,537.332,0.0
51738.0,STARLINK-3515,PAYLOAD,2022-12-13 02:52:18,15.08819435,0.0003779,53.2151,227.8948,34.3761,325.7475,-0.00011939,-2.188e-05,0.0,0 STARLINK-3515,1 51738U 22016AA  22347.11965383 -.00002188  00000-0 -11939-3 0  9996,2 51738  53.2151 227.8948 0003779  34.3761 325.7475 15.08819435 46145,6917.943,95.439,542.423,537.194,0.0
51738.0,STARLINK-3515,PAYLOAD,2022-12-13 09:13:50,15.08829365,0.0003047,53.2162,226.7056,28.7118,331.4041,4.4309e-05,4.16e-06,0.0,0 STARLINK-3515,1 51738U 22016AA  22347.38461067  .00000416  00000-0  44309-4 0  9993,2 51738  53.2162 226.7056 0003047  28.7118 331.4041 15.08829365 46186,6917.913000000001,95.438,541.886,537.67,0.0
51738.0,STARLINK-3515,PAYLOAD,2022-12-13 17:10:46,15.08833179,0.0003034,53.2148,225.2191,26.4133,333.7014,9.839e-05,1.277e-05,0.0,0 STARLINK-3515,1 51738U 22016AA  22347.71581159  .00001277  00000-0  98390-4 0  9990,2 51738  53.2148 225.2191 0003034  26.4133 333.7014 15.08833179 46231,6917.901,95.438,541.865,537.6669999999998,0.0
51738.0,STARLINK-3515,PAYLOAD,2022-12-13 23:32:18,15.08840929,0.0003015,53.2153,224.0297,28.7996,331.3162,0.00032804,4.936e-05,0.0,0 STARLINK-3515,1 51738U 22016AA  22347.98077109  .00004936  00000-0  32804-3 0  9996,2 51738  53.2153 224.0297 0003015  28.7996 331.3162 15.08840929 46275,6917.878000000002,95.437,541.828,537.6569999999998,0.0
51738.0,STARLINK-3515,PAYLOAD,2022-12-14 09:04:37,15.08849176,0.0002949,53.2151,222.2457,28.4302,331.6851,0.00061311,9.486e-05,0.0,0 STARLINK-3515,1 51738U 22016AA  22348.37821072  .00009486  00000-0  61311-3 0  9996,2 51738  53.2151 222.2457 0002949  28.4302 331.6851 15.08849176 46332,6917.852,95.437,541.757,537.677,0.0
51738.0,STARLINK-3515,PAYLOAD,2022-12-14 21:47:41,15.08861649,0.0002967,53.2149,219.8667,29.4646,330.6513,0.00063246,9.798e-05,0.0,0 STARLINK-3515,1 51738U 22016AA  22348.90812470  .00009798  00000-0  63246-3 0  9992,2 51738  53.2149 219.8667 0002967  29.4646 330.6513 15.08861649 45305,6917.814,95.436,541.732,537.627,0.0
51738.0,STARLINK-3515,PAYLOAD,2022-12-15 04:09:14,15.0885994,0.0003028,53.2146,218.677,28.4816,331.6341,0.0004473,6.842e-05,0.0,0 STARLINK-3515,1 51738U 22016AA  22349.17308207  .00006842  00000-0  44730-3 0  9994,2 51738  53.2146 218.6770 0003028  28.4816 331.6341 15.08859940 46459,6917.819,95.436,541.779,537.59,0.0
51738.0,STARLINK-3515,PAYLOAD,2022-12-15 08:55:23,15.08849873,0.000314,53.2145,217.7849,30.479,329.6384,0.00015039,2.106e-05,0.0,0 STARLINK-3515,1 51738U 22016AA  22349.37180447  .00002106  00000-0  15039-3 0  9999,2 51738  53.2145 217.7849 0003140  30.4790 329.6384 15.08849873 45372,6917.85,95.437,541.887,537.543,0.0
51738.0,STARLINK-3515,PAYLOAD,2022-12-15 15:16:56,15.08853197,0.0003143,53.2136,216.5945,34.2665,325.8529,0.00031262,4.692e-05,0.0,0 STARLINK-3515,1 51738U 22016AA  22349.63676310  .00004692  00000-0  31262-3 0  9995,2 51738  53.2136 216.5945 0003143  34.2665 325.8529 15.08853197 46523,6917.84,95.437,541.879,537.531,0.0
51738.0,STARLINK-3515,PAYLOAD,2022-12-15 20:03:05,15.0885031,0.0002965,53.2143,215.7022,32.886,327.2316,0.00043082,6.577e-05,0.0,0 STARLINK-3515,1 51738U 22016AA  22349.83548277  .00006577  00000-0  43082-3 0  9994,2 51738  53.2143 215.7022 0002965  32.8860 327.2316 15.08850310 45444,6917.849,95.437,541.765,537.663,0.0
51738.0,STARLINK-3515,PAYLOAD,2022-12-15 23:13:51,15.08853062,0.0003074,53.2151,215.1087,30.2027,329.9142,0.00031727,4.766e-05,0.0,0 STARLINK-3515,1 51738U 22016AA  22349.96796220  .00004766  00000-0  31727-3 0  9992,2 51738  53.2151 215.1087 0003074  30.2027 329.9142 15.08853062 46575,6917.84,95.437,541.832,537.5790000000002,0.0
51738.0,STARLINK-3515,PAYLOAD,2022-12-16 08:46:11,15.088398499999998,0.0003023,53.215,213.3236,31.9442,328.1733,0.00026659,3.957e-05,0.0,0 STARLINK-3515,1 51738U 22016AA  22350.36540598  .00003957  00000-0  26659-3 0  9992,2 51738  53.2150 213.3236 0003023  31.9442 328.1733 15.08839850 46636,6917.880999999999,95.438,541.837,537.655,0.0
51738.0,STARLINK-3515,PAYLOAD,2022-12-16 19:53:53,15.088393300000002,0.0003145,53.215,211.2433,29.6515,330.4655,0.00016435,2.328e-05,0.0,0 STARLINK-3515,1 51738U 22016AA  22350.82908691  .00002328  00000-0  16435-3 0  9997,2 51738  53.2150 211.2433 0003145  29.6515 330.4655 15.08839330 46702,6917.882,95.438,541.923,537.572,0.0
51738.0,STARLINK-3515,PAYLOAD,2022-12-17 00:40:02,15.08843943,0.0003134,53.2152,210.3507,31.768,328.35,0.00016787,2.384e-05,0.0,0 STARLINK-3515,1 51738U 22016AA  22351.02780559  .00002384  00000-0  16787-3 0  9993,2 51738  53.2152 210.3507 0003134  31.7680 328.3500 15.08843943 46734,6917.868,95.437,541.901,537.565,0.0
51738.0,STARLINK-3515,PAYLOAD,2022-12-17 18:09:17,15.08838583,0.0003067,53.2152,207.0791,33.8294,326.2894,9.9192e-05,1.29e-05,0.0,0 STARLINK-3515,1 51738U 22016AA  22351.75644899  .00001290  00000-0  99192-4 0  9996,2 51738  53.2152 207.0791 0003067  33.8294 326.2894 15.08838583 46840,6917.885,95.438,541.871,537.628,0.0
51738.0,STARLINK-3515,PAYLOAD,2022-12-17 21:20:03,15.08836482,0.0003109,53.2152,206.4846,32.9811,327.1375,5.8317e-05,6.4e-06,0.0,0 STARLINK-3515,1 51738U 22016AA  22351.88893018  .00000640  00000-0  58317-4 0  9991,2 51738  53.2152 206.4846 0003109  32.9811 327.1375 15.08836482 45755,6917.891,95.438,541.9069999999998,537.605,0.0
51738.0,STARLINK-3515,PAYLOAD,2022-12-18 00:30:49,15.08835881,0.0003125,53.2152,205.89,32.4982,327.6202,2.9143e-05,1.75e-06,0.0,0 STARLINK-3515,1 51738U 22016AA  22352.02141067  .00000175  00000-0  29143-4 0  9996,2 51738  53.2152 205.8900 0003125  32.4982 327.6202 15.08835881 46882,6917.893,95.438,541.92,537.596,0.0
51738.0,STARLINK-3515,PAYLOAD,2022-12-18 21:10:50,15.08843882,0.0003122,53.2152,202.0244,33.5681,326.5508,0.00017948,2.569e-05,0.0,0 STARLINK-3515,1 51738U 22016AA  22352.88252825  .00002569  00000-0  17948-3 0  9993,2 51738  53.2152 202.0244 0003122  33.5681 326.5508 15.08843882 45906,6917.869000000002,95.437,541.893,537.5740000000002,0.0
51738.0,STARLINK-3515,PAYLOAD,2022-12-19 00:21:36,15.0884525,0.0003148,53.2153,201.4295,33.1841,326.9348,0.00014681,2.049e-05,0.0,0 STARLINK-3515,1 51738U 22016AA  22353.01500705  .00002049  00000-0  14681-3 0  9996,2 51738  53.2153 201.4295 0003148  33.1841 326.9348 15.08845250 47031,6917.864000000001,95.437,541.9069999999998,537.552,0.0
51738.0,STARLINK-3515,PAYLOAD,2022-12-19 21:01:37,15.08842449,0.0003171,53.2152,197.5637,34.2948,325.8248,0.00012869,1.76e-05,0.0,0 STARLINK-3515,1 51738U 22016AA  22353.87612740  .00001760  00000-0  12869-3 0  9998,2 51738  53.2152 197.5637 0003171  34.2948 325.8248 15.08842449 46056,6917.873000000001,95.437,541.932,537.544,0.0
51738.0,STARLINK-3515,PAYLOAD,2022-12-19 22:37:00,15.08839697,0.0003184,53.2154,197.2663,34.2019,325.9178,7.9719e-05,9.8e-06,0.0,0 STARLINK-3515,1 51738U 22016AA  22353.94236883  .00000980  00000-0  79719-4 0  9997,2 51738  53.2154 197.2663 0003184  34.2019 325.9178 15.08839697 47175,6917.880999999999,95.438,541.9490000000002,537.544,0.0
51738.0,STARLINK-3515,PAYLOAD,2022-12-20 06:33:56,15.088432999999998,0.0003188,53.2152,195.7795,34.7289,325.391,9.6524e-05,1.248e-05,0.0,0 STARLINK-3515,1 51738U 22016AA  22354.27356676  .00001248  00000-0  96524-4 0  9998,2 51738  53.2152 195.7795 0003188  34.7289 325.3910 15.08843300 47220,6917.87,95.437,541.941,537.53,0.0
51738.0,STARLINK-3515,PAYLOAD,2022-12-20 20:52:24,15.08846257,0.0003165,53.2151,193.1031,34.8261,325.2938,-4.8426e-06,-3.66e-06,0.0,0 STARLINK-3515,1 51738U 22016AA  22354.86972239 -.00000366  00000-0 -48426-5 0  9993,2 51738  53.2151 193.1031 0003165  34.8261 325.2938 15.08846257 47313,6917.861,95.437,541.9159999999998,537.5369999999998,0.0
51738.0,STARLINK-3515,PAYLOAD,2022-12-21 01:38:34,15.08837893,0.00033,53.2158,192.2121,34.2152,325.9052,2.058300000000001e-05,3.9e-07,0.0,0 STARLINK-3515,1 51738U 22016AA  22355.06845199  .00000039  00000-0  20583-4 0  9998,2 51738  53.2158 192.2121 0003300  34.2152 325.9052 15.08837893 47347,6917.887,95.438,542.035,537.469,0.0
51738.0,STARLINK-3515,PAYLOAD,2022-12-21 06:24:43,15.08837859,0.0003153,53.216,191.319,36.2033,323.9172,-1.9396e-05,-5.97e-06,0.0,0 STARLINK-3515,1 51738U 22016AA  22355.26717255 -.00000597  00000-0 -19396-4 0  9992,2 51738  53.2160 191.3190 0003153  36.2033 323.9172 15.08837859 47378,6917.887,95.438,541.933,537.571,0.0
51738.0,STARLINK-3515,PAYLOAD,2022-12-21 17:32:25,15.08837825,0.0003174,53.2162,189.2374,36.2542,323.8664,7.0625e-05,8.35e-06,0.0,0 STARLINK-3515,1 51738U 22016AA  22355.73085137  .00000835  00000-0  70625-4 0  9996,2 51738  53.2162 189.2374 0003174  36.2542 323.8664 15.08837825 47444,6917.887,95.438,541.948,537.556,0.0
51738.0,STARLINK-3515,PAYLOAD,2022-12-21 22:18:34,15.08837695,0.0003195,53.2149,188.3455,36.8235,323.2976,5.6222e-05,6.06e-06,0.0,0 STARLINK-3515,1 51738U 22016AA  22355.92956987  .00000606  00000-0  56222-4 0  9990,2 51738  53.2149 188.3455 0003195  36.8235 323.2976 15.08837695 47475,6917.887,95.438,541.9630000000002,537.5419999999998,0.0
